OSCAR 7 (AO-7)          
1 07530U 74089B   26162.65147907 -.00000028  00000+0  11383-3 0  9998
2 07530 101.9901 175.8403 0012512 140.4232 346.6372 12.53697989359820
PHASE 3B (AO-10)        
1 14129U 83058B   26158.17238870 -.00000194  00000+0  00000+0 0  9992
2 14129  25.9048 221.2242 6014266 112.9115 319.2048  2.05872980295281
UOSAT 2 (UO-11)         
1 14781U 84021B   26162.85173535  .00001184  00000+0  12615-3 0  9991
2 14781  97.8055 128.4861 0007136 190.5105 169.5965 14.90770083256334
LUSAT (LO-19)           
1 20442U 90005G   26162.94930685  .00000099  00000+0  52115-4 0  9992
2 20442  98.8851 184.6105 0010842 217.2541 142.7892 14.34121586901643
EYESAT A (AO-27)        
1 22825U 93061C   26162.75558255  .00000071  00000+0  43872-4 0  9992
2 22825  98.6880 230.1710 0009458 113.7867 246.4308 14.30940790706224
ITAMSAT (IO-26)         
1 22826U 93061D   26162.73661513  .00000073  00000+0  44441-4 0  9998
2 22826  98.6829 230.0688 0010076  99.1890 261.0433 14.31367533706537
RADIO ROSTO (RS15)      
1 23439U 94085A   26162.88332484 -.00000050  00000+0 -22282-3 0  9999
2 23439  64.8187 311.7941 0155781   4.8570 355.3824 11.27583599295303
JAS-2 (FO-29)           
1 24278U 96046B   26162.54420303  .00000014  00000+0  46335-4 0  9995
2 24278  98.5245  12.1894 0350827 111.0367 252.8667 13.53273928472403
TECHSAT 1B (GO-32)      
1 25397U 98043D   26162.93664952  .00000044  00000+0  39144-4 0  9993
2 25397  99.0065 155.5629 0000754 175.7521 184.3664 14.24427405450581
ISS (ZARYA)             
1 25544U 98067A   26162.83551937  .00007284  00000+0  13937-3 0  9994
2 25544  51.6334 326.5798 0004934 175.2433 184.8603 15.49179015570924
PCSAT (NO-44)           
1 26931U 01043C   26162.64152601  .00000072  00000+0  57659-4 0  9995
2 26931  67.0509 258.6152 0006099 264.4327  95.6080 14.31954152289654
SAUDISAT 1C (SO-50)     
1 27607U 02058C   26162.55839360  .00000916  00000+0  12536-3 0  9998
2 27607  64.5506 146.4007 0075403 263.5157  95.7360 14.83034770263626
CUTE-1 (CO-55)          
1 27844U 03031E   26162.97931317  .00000243  00000+0  12418-3 0  9996
2 27844  98.6735 171.6035 0009162 193.3973 166.6964 14.24332546190935
CUBESAT XI-IV (CO-57)   
1 27848U 03031J   26162.96515925  .00000209  00000+0  11102-3 0  9993
2 27848  98.6768 171.3067 0008710 213.1482 146.9152 14.23618048190631
MOZHAETS 4 (RS22)       
1 27939U 03042A   26162.99412738  .00001144  00000+0  18446-3 0  9994
2 27939  98.3473 347.2069 0010049 288.3996 190.6956 14.73459694214786
CUBESAT XI-V            
1 28895U 05043F   26162.96687193  .00001171  00000+0  19211-3 0  9996
2 28895  98.2978 318.4792 0013339 218.0052 142.0215 14.72617350100987
CUTE-1.7+APD II (CO-65) 
1 32785U 08021C   26162.94544593  .00004770  00000+0  30225-3 0  9998
2 32785  97.8271 144.2548 0010282  54.9018 305.3173 15.09404820984409
SEEDS II (CO-66)        
1 32791U 08021J   26162.97785709  .00016592  00000+0  52956-3 0  9994
2 32791  97.7516 160.6273 0001854  21.0247 339.1070 15.32573857986493
YUBILEINY (RS30)        
1 32953U 08025A   26162.94786781 -.00000004  00000+0 -10243-3 0  9992
2 32953  82.5050 358.7005 0019060 325.6873  34.2975 12.43178854819047
KKS-1 (KISEKI)          
1 33499U 09002H   26162.85928291  .00001126  00000+0  14508-3 0  9990
2 33499  98.1193  85.2170 0006819 316.1824  43.8847 14.83110411935402
SWISSCUBE               
1 35932U 09051B   26162.21632552  .00000804  00000+0  16844-3 0  9997
2 35932  98.4041  70.0006 0005629 224.4191 135.6559 14.62470076888283
BEESAT-1                
1 35933U 09051C   26162.70183136  .00000710  00000+0  15245-3 0  9991
2 35933  98.3970  70.1415 0003979 238.6332 121.4479 14.61711768888389
ITUPSAT1                
1 35935U 09051E   26162.20832686  .00000614  00000+0  13683-3 0  9996
2 35935  98.4055  68.8386 0006132 256.4621 103.5895 14.60431670887865
XIWANG-1 (HOPE-1)       
1 36122U 09072B   26162.84794473  .00000142  00000+0  48878-3 0  9999
2 36122 100.4019 116.7650 0006819 244.7069 115.3338 13.16439429792300
O/OREOS (USA 219)       
1 37224U 10062C   26162.97248695  .00001959  00000+0  19066-3 0  9992
2 37224  71.9709  92.1509 0012422  74.4457 285.8084 14.93721984115865
JUGNU                   
1 37839U 11058B   26161.86742604  .00000399  00000+0  68784-4 0  9995
2 37839  19.9621 346.8221 0018563   6.6957  22.8320 14.13775053758139
SRMSAT                  
1 37841U 11058D   26162.51581192  .00000355  00000+0  48954-4 0  9993
2 37841  19.9715  93.7945 0011909 141.4141  27.1536 14.11574372757019
STRAND-1                
1 39090U 13009E   26162.48626012  .00000258  00000+0  10129-3 0  9990
2 39090  98.3921 342.8611 0007504 244.6927 115.3483 14.37160014696249
ZACUBE-1 (TSHEPISOSAT)  
1 39417U 13066B   26162.80818086  .00003114  00000+0  24384-3 0  9998
2 39417  97.8084 125.1158 0040239 266.5236  93.1385 15.01156095679928
GOMX-1                  
1 39430U 13066Q   26162.94273889  .00002429  00000+0  36756-3 0  9998
2 39430  97.6493   3.7373 0130194  94.1785 267.4313 14.69442724669149
